CCSDS_OMM_VERS = 2.0
CREATION_DATE  = 
ORIGINATOR     = 

OBJECT_NAME    = JACK E
OBJECT_ID      = 2025-274E
CENTER_NAME    = EARTH
REF_FRAME      = TEME
TIME_SYSTEM    = UTC
MEAN_ELEMENT_THEORY = SGP/SGP4

EPOCH          = 2025-12-17T05:47:27.284928
MEAN_MOTION    = 14.92109720
ECCENTRICITY   = .0011849
INCLINATION    = 97.7399
RA_OF_ASC_NODE = 278.3595
ARG_OF_PERICENTER = 238.6738
MEAN_ANOMALY   = 121.3322

EPHEMERIS_TYPE = 0
CLASSIFICATION_TYPE = U
NORAD_CAT_ID   = 66654
ELEMENT_SET_NO = 999
REV_AT_EPOCH   = 307
BSTAR          = .18318685E-3
MEAN_MOTION_DOT = .1808E-4
MEAN_MOTION_DDOT = 0

CCSDS_OMM_VERS = 2.0
CREATION_DATE  = 
ORIGINATOR     = 

OBJECT_NAME    = 2025-274F
OBJECT_ID      = 2025-274F
CENTER_NAME    = EARTH
REF_FRAME      = TEME
TIME_SYSTEM    = UTC
MEAN_ELEMENT_THEORY = SGP/SGP4

EPOCH          = 2025-12-16T18:34:17.228064
MEAN_MOTION    = 14.91167242
ECCENTRICITY   = .00052999
INCLINATION    = 97.7319
RA_OF_ASC_NODE = 277.8939
ARG_OF_PERICENTER = 8.1600
MEAN_ANOMALY   = 351.9703

EPHEMERIS_TYPE = 0
CLASSIFICATION_TYPE = U
NORAD_CAT_ID   = 66655
ELEMENT_SET_NO = 999
REV_AT_EPOCH   = 300
BSTAR          = -.1279618E-5
MEAN_MOTION_DOT = -.68E-6
MEAN_MOTION_DDOT = 0

CCSDS_OMM_VERS = 2.0
CREATION_DATE  = 
ORIGINATOR     = 

OBJECT_NAME    = 2025-274G
OBJECT_ID      = 2025-274G
CENTER_NAME    = EARTH
REF_FRAME      = TEME
TIME_SYSTEM    = UTC
MEAN_ELEMENT_THEORY = SGP/SGP4

EPOCH          = 2025-12-17T07:20:19.483584
MEAN_MOTION    = 14.92303559
ECCENTRICITY   = .0012452
INCLINATION    = 97.7399
RA_OF_ASC_NODE = 278.4278
ARG_OF_PERICENTER = 240.0435
MEAN_ANOMALY   = 119.9549

EPHEMERIS_TYPE = 0
CLASSIFICATION_TYPE = U
NORAD_CAT_ID   = 66656
ELEMENT_SET_NO = 999
REV_AT_EPOCH   = 308
BSTAR          = .20739138E-3
MEAN_MOTION_DOT = .2065E-4
MEAN_MOTION_DDOT = 0

CCSDS_OMM_VERS = 2.0
CREATION_DATE  = 
ORIGINATOR     = 

OBJECT_NAME    = SPIRONE
OBJECT_ID      = 2025-274H
CENTER_NAME    = EARTH
REF_FRAME      = TEME
TIME_SYSTEM    = UTC
MEAN_ELEMENT_THEORY = SGP/SGP4

EPOCH          = 2025-12-17T07:16:45.967584
MEAN_MOTION    = 14.92482598
ECCENTRICITY   = .00106558
INCLINATION    = 97.7396
RA_OF_ASC_NODE = 278.4303
ARG_OF_PERICENTER = 258.6573
MEAN_ANOMALY   = 101.3449

EPHEMERIS_TYPE = 0
CLASSIFICATION_TYPE = U
NORAD_CAT_ID   = 66657
ELEMENT_SET_NO = 999
REV_AT_EPOCH   = 308
BSTAR          = .2135548E-3
MEAN_MOTION_DOT = .2137E-4
MEAN_MOTION_DDOT = 0

CCSDS_OMM_VERS = 2.0
CREATION_DATE  = 
ORIGINATOR     = 

OBJECT_NAME    = 2025-274J
OBJECT_ID      = 2025-274J
CENTER_NAME    = EARTH
REF_FRAME      = TEME
TIME_SYSTEM    = UTC
MEAN_ELEMENT_THEORY = SGP/SGP4

EPOCH          = 2025-12-17T07:13:19.297056
MEAN_MOTION    = 14.92652844
ECCENTRICITY   = .00111648
INCLINATION    = 97.7395
RA_OF_ASC_NODE = 278.4336
ARG_OF_PERICENTER = 261.8636
MEAN_ANOMALY   = 98.1317

EPHEMERIS_TYPE = 0
CLASSIFICATION_TYPE = U
NORAD_CAT_ID   = 66658
ELEMENT_SET_NO = 999
REV_AT_EPOCH   = 308
BSTAR          = .21924381E-3
MEAN_MOTION_DOT = .2205E-4
MEAN_MOTION_DDOT = 0

CCSDS_OMM_VERS = 2.0
CREATION_DATE  = 
ORIGINATOR     = 

OBJECT_NAME    = JACK K
OBJECT_ID      = 2025-274K
CENTER_NAME    = EARTH
REF_FRAME      = TEME
TIME_SYSTEM    = UTC
MEAN_ELEMENT_THEORY = SGP/SGP4

EPOCH          = 2025-12-17T07:09:38.065536
MEAN_MOTION    = 14.92837552
ECCENTRICITY   = .00118894
INCLINATION    = 97.7398
RA_OF_ASC_NODE = 278.4374
ARG_OF_PERICENTER = 263.3223
MEAN_ANOMALY   = 96.6643

EPHEMERIS_TYPE = 0
CLASSIFICATION_TYPE = U
NORAD_CAT_ID   = 66659
ELEMENT_SET_NO = 999
REV_AT_EPOCH   = 308
BSTAR          = .23154316E-3
MEAN_MOTION_DOT = .2343E-4
MEAN_MOTION_DDOT = 0

CCSDS_OMM_VERS = 2.0
CREATION_DATE  = 
ORIGINATOR     = 

OBJECT_NAME    = K-HERO
OBJECT_ID      = 2025-274L
CENTER_NAME    = EARTH
REF_FRAME      = TEME
TIME_SYSTEM    = UTC
MEAN_ELEMENT_THEORY = SGP/SGP4

EPOCH          = 2025-12-17T07:06:39.240864
MEAN_MOTION    = 14.92988627
ECCENTRICITY   = .0012493
INCLINATION    = 97.7403
RA_OF_ASC_NODE = 278.4411
ARG_OF_PERICENTER = 263.9553
MEAN_ANOMALY   = 96.0243

EPHEMERIS_TYPE = 0
CLASSIFICATION_TYPE = U
NORAD_CAT_ID   = 66660
ELEMENT_SET_NO = 999
REV_AT_EPOCH   = 308
BSTAR          = .262489E-3
MEAN_MOTION_DOT = .2675E-4
MEAN_MOTION_DDOT = 0

CCSDS_OMM_VERS = 2.0
CREATION_DATE  = 
ORIGINATOR     = 

OBJECT_NAME    = SNUGLITE-III
OBJECT_ID      = 2025-274M
CENTER_NAME    = EARTH
REF_FRAME      = TEME
TIME_SYSTEM    = UTC
MEAN_ELEMENT_THEORY = SGP/SGP4

EPOCH          = 2025-12-17T07:03:44.887392
MEAN_MOTION    = 14.93123227
ECCENTRICITY   = .00131135
INCLINATION    = 97.7399
RA_OF_ASC_NODE = 278.4429
ARG_OF_PERICENTER = 265.2230
MEAN_ANOMALY   = 94.7493

EPHEMERIS_TYPE = 0
CLASSIFICATION_TYPE = U
NORAD_CAT_ID   = 66661
ELEMENT_SET_NO = 999
REV_AT_EPOCH   = 308
BSTAR          = .23165098E-3
MEAN_MOTION_DOT = .2362E-4
MEAN_MOTION_DDOT = 0

CCSDS_OMM_VERS = 2.0
CREATION_DATE  = 
ORIGINATOR     = 

OBJECT_NAME    = 2025-274N
OBJECT_ID      = 2025-274N
CENTER_NAME    = EARTH
REF_FRAME      = TEME
TIME_SYSTEM    = UTC
MEAN_ELEMENT_THEORY = SGP/SGP4

EPOCH          = 2025-12-17T07:02:36.581280
MEAN_MOTION    = 14.93177593
ECCENTRICITY   = .00135404
INCLINATION    = 97.7399
RA_OF_ASC_NODE = 278.4442
ARG_OF_PERICENTER = 264.8170
MEAN_ANOMALY   = 95.1505

EPHEMERIS_TYPE = 0
CLASSIFICATION_TYPE = U
NORAD_CAT_ID   = 66662
ELEMENT_SET_NO = 999
REV_AT_EPOCH   = 308
BSTAR          = .24747448E-3
MEAN_MOTION_DOT = .2531E-4
MEAN_MOTION_DDOT = 0

CCSDS_OMM_VERS = 2.0
CREATION_DATE  = 
ORIGINATOR     = 

OBJECT_NAME    = KSLV-II R/B
OBJECT_ID      = 2025-274P
CENTER_NAME    = EARTH
REF_FRAME      = TEME
TIME_SYSTEM    = UTC
MEAN_ELEMENT_THEORY = SGP/SGP4

EPOCH          = 2025-12-16T16:49:36.043104
MEAN_MOTION    = 14.97367588
ECCENTRICITY   = .00548465
INCLINATION    = 97.7431
RA_OF_ASC_NODE = 278.0066
ARG_OF_PERICENTER = 305.8627
MEAN_ANOMALY   = 53.7508

EPHEMERIS_TYPE = 0
CLASSIFICATION_TYPE = U
NORAD_CAT_ID   = 66663
ELEMENT_SET_NO = 999
REV_AT_EPOCH   = 300
BSTAR          = .58875803E-3
MEAN_MOTION_DOT = .6993E-4
MEAN_MOTION_DDOT = 0

CCSDS_OMM_VERS = 2.0
CREATION_DATE  = 
ORIGINATOR     = 

OBJECT_NAME    = SOYUZ-MS 28
OBJECT_ID      = 2025-275A
CENTER_NAME    = EARTH
REF_FRAME      = TEME
TIME_SYSTEM    = UTC
MEAN_ELEMENT_THEORY = SGP/SGP4

EPOCH          = 2025-12-17T01:19:48.717408
MEAN_MOTION    = 15.49629327
ECCENTRICITY   = .00031735
INCLINATION    = 51.6309
RA_OF_ASC_NODE = 121.1077
ARG_OF_PERICENTER = 260.4156
MEAN_ANOMALY   = 99.6474

EPHEMERIS_TYPE = 0
CLASSIFICATION_TYPE = U
NORAD_CAT_ID   = 66664
ELEMENT_SET_NO = 999
REV_AT_EPOCH   = 128
BSTAR          = .14583435E-3
MEAN_MOTION_DOT = .777E-4
MEAN_MOTION_DDOT = 0

CCSDS_OMM_VERS = 2.0
CREATION_DATE  = 
ORIGINATOR     = 

OBJECT_NAME    = STARLINK-35867
OBJECT_ID      = 2025-278A
CENTER_NAME    = EARTH
REF_FRAME      = TEME
TIME_SYSTEM    = UTC
MEAN_ELEMENT_THEORY = SGP/SGP4

EPOCH          = 2025-12-17T08:00:04.999680
MEAN_MOTION    = 15.75453274
ECCENTRICITY   = .00015476
INCLINATION    = 42.9993
RA_OF_ASC_NODE = 224.0275
ARG_OF_PERICENTER = 265.0976
MEAN_ANOMALY   = 15.7737

EPHEMERIS_TYPE = 0
CLASSIFICATION_TYPE = U
NORAD_CAT_ID   = 66791
ELEMENT_SET_NO = 999
REV_AT_EPOCH   = 369
BSTAR          = -.10134836E-1
MEAN_MOTION_DOT = -.1406257E-1
MEAN_MOTION_DDOT = 0

CCSDS_OMM_VERS = 2.0
CREATION_DATE  = 
ORIGINATOR     = 

OBJECT_NAME    = STARLINK-35990
OBJECT_ID      = 2025-278B
CENTER_NAME    = EARTH
REF_FRAME      = TEME
TIME_SYSTEM    = UTC
MEAN_ELEMENT_THEORY = SGP/SGP4

EPOCH          = 2025-12-17T08:00:04.999680
MEAN_MOTION    = 15.75454901
ECCENTRICITY   = .00019532
INCLINATION    = 42.9993
RA_OF_ASC_NODE = 224.0230
ARG_OF_PERICENTER = 276.0809
MEAN_ANOMALY   = 6.7027

EPHEMERIS_TYPE = 0
CLASSIFICATION_TYPE = U
NORAD_CAT_ID   = 66792
ELEMENT_SET_NO = 999
REV_AT_EPOCH   = 369
BSTAR          = -.10131486E-1
MEAN_MOTION_DOT = -.1406185E-1
MEAN_MOTION_DDOT = 0

CCSDS_OMM_VERS = 2.0
CREATION_DATE  = 
ORIGINATOR     = 

OBJECT_NAME    = STARLINK-36051
OBJECT_ID      = 2025-278C
CENTER_NAME    = EARTH
REF_FRAME      = TEME
TIME_SYSTEM    = UTC
MEAN_ELEMENT_THEORY = SGP/SGP4

EPOCH          = 2025-12-17T08:00:04.999680
MEAN_MOTION    = 15.75462584
ECCENTRICITY   = .00022525
INCLINATION    = 42.9993
RA_OF_ASC_NODE = 224.0131
ARG_OF_PERICENTER = 271.6928
MEAN_ANOMALY   = 14.9163

EPHEMERIS_TYPE = 0
CLASSIFICATION_TYPE = U
NORAD_CAT_ID   = 66793
ELEMENT_SET_NO = 999
REV_AT_EPOCH   = 359
BSTAR          = -.10173968E-1
MEAN_MOTION_DOT = -.1412033E-1
MEAN_MOTION_DDOT = 0

CCSDS_OMM_VERS = 2.0
CREATION_DATE  = 
ORIGINATOR     = 

OBJECT_NAME    = STARLINK-36062
OBJECT_ID      = 2025-278D
CENTER_NAME    = EARTH
REF_FRAME      = TEME
TIME_SYSTEM    = UTC
MEAN_ELEMENT_THEORY = SGP/SGP4

EPOCH          = 2025-12-17T08:00:04.999680
MEAN_MOTION    = 15.75465869
ECCENTRICITY   = .00017481
INCLINATION    = 42.9992
RA_OF_ASC_NODE = 224.0179
ARG_OF_PERICENTER = 275.0374
MEAN_ANOMALY   = 9.6468

EPHEMERIS_TYPE = 0
CLASSIFICATION_TYPE = U
NORAD_CAT_ID   = 66794
ELEMENT_SET_NO = 999
REV_AT_EPOCH   = 369
BSTAR          = -.10146217E-1
MEAN_MOTION_DOT = -.1408476E-1
MEAN_MOTION_DDOT = 0

